NIMIQ 2                 
1 27632U 02062A   26063.02544715 -.00000077  00000+0  00000+0 0  9998
2 27632   9.2039  57.9873 0006544 288.5303  75.2234  1.00272392 43132
ANIK F2                 
1 28378U 04027A   26063.13494759 -.00000061  00000+0  00000+0 0  9996
2 28378   3.0134  80.8583 0003027 296.6773  81.8127  1.00272360 40210
ANIK F1R                
1 28868U 05036A   26063.13572759 -.00000086  00000+0  00000+0 0  9995
2 28868   4.0443  77.8955 0002892 299.7446  85.8143  1.00272119 45407
ANIK F3                 
1 31102U 07009A   26063.13347425 -.00000013  00000+0  00000+0 0  9992
2 31102   0.9262  85.2149 0002795 265.0912 100.9231  1.00273402 45515
NIMIQ 4                 
1 33373U 08044A   26063.17405784 -.00000232  00000+0  00000+0 0  9994
2 33373   0.0281 100.9532 0002345 255.8098 145.8028  1.00270314 63930
TELSTAR 11N             
1 34111U 09009A   26063.06294760 -.00000264  00000+0  00000+0 0  9990
2 34111   0.0201 130.4864 0002564 202.6375 173.7861  1.00270782 45192
TERRESTAR-1             
1 35496U 09035A   26062.56445392 -.00000068  00000+0  00000+0 0  9991
2 35496   5.0935  48.8335 0002899 301.5224 263.1652  1.00271520 61074
NIMIQ 5                 
1 35873U 09050A   26063.15600580 -.00000269  00000+0  00000+0 0  9998
2 35873   0.0537 271.2563 0002655  72.6011 161.4903  1.00273209 60299
SKYTERRA 1              
1 37218U 10061A   26063.06561392 -.00000128  00000+0  00000+0 0  9998
2 37218   4.9016  50.9140 0001604 293.9261  99.2594  1.00271469 56149
TELSTAR 14R             
1 37602U 11021A   26063.07324062 -.00000293  00000+0  00000+0 0  9997
2 37602   0.0365 269.7706 0002427  79.4879 135.9192  1.00272792 54784
NIMIQ 6                 
1 38342U 12026A   26063.18586576 -.00000186  00000+0  00000+0 0  9998
2 38342   0.0559 279.8394 0002627  59.1089 158.7873  1.00270974 49363
ANIK G1                 
1 39127U 13014A   26063.13572759 -.00000086  00000+0  00000+0 0  9990
2 39127   0.0558 270.9178 0003046  51.0880 141.4263  1.00271683 47191
TELSTAR 12V             
1 41036U 15068A   26062.93447528 -.00000132  00000+0  00000+0 0  9997
2 41036   0.0200 104.8111 0002634 243.8841 134.3921  1.00271484 37571
VIASAT-2                
1 42740U 17029A   26063.07185395 -.00000278  00000+0  00000+0 0  9997
2 42740   0.0245 247.4016 0000615 132.1200  98.2655  1.00272219 32155
LEO 1 (LEO VANTAGE 1)   
1 43113U 18004C   26063.18240006  .00006268  00000+0  43384-3 0  9999
2 43113  99.2486 327.7875 0353364  41.7580 321.0018 14.67120416422083
TELSTAR 19V             
1 43562U 18059A   26063.14448096 -.00000292  00000+0  00000+0 0  9998
2 43562   0.0201 169.6505 0000593 253.9650  87.2796  1.00272020 28096
TELSTAR 18V             
1 43611U 18069A   26062.97038334 -.00000307  00000+0  00000+0 0  9991
2 43611   0.0174 228.2832 0002083 114.1403 306.6322  1.00271391 27570
